start=new Date('2022-10-26T00:00:00.000Z').valueOf();
sats=[{"MEAN_MOTION_DOT":"0.00006307","ELEMENT_SET_NO":"999","TIME_SYSTEM":"UTC","ARG_OF_PERICENTER":"91.8408","MEAN_ANOMALY":"268.2739","INCLINATION":"53.0549","TLE_LINE2":"2 45052  53.0549  53.1707 0001379  91.8408 268.2739 15.06395818150905","PERIOD":"95.592","CLASSIFICATION_TYPE":"U","DECAY_DATE":null,"OBJECT_NAME":"STARLINK-1148","EPOCH":"2022-10-25T14:28:25.573728","REV_AT_EPOCH":"15090","MEAN_ELEMENT_THEORY":"SGP4","FILE":"3633327","OBJECT_ID":"2020-006J","SITE":"AFETR","TLE_LINE1":"1 45052U 20006J   22298.60307377  .00006307  00000-0  44197-3 0  9994","MEAN_MOTION":"15.06395818","CENTER_NAME":"EARTH","NORAD_CAT_ID":"45052","LAUNCH_DATE":"2020-01-29","RA_OF_ASC_NODE":"53.1707","COUNTRY_CODE":"US","SEMIMAJOR_AXIS":"6925.361","BSTAR":"0.00044197000000","RCS_SIZE":"LARGE","PERIAPSIS":"546.271","APOAPSIS":"548.181","REF_FRAME":"TEME","GP_ID":"216151968","OBJECT_TYPE":"PAYLOAD","EPHEMERIS_TYPE":"0","ECCENTRICITY":"0.00013790","MEAN_MOTION_DDOT":"0.0000000000000"},{"MEAN_ELEMENT_THEORY":"SGP4","FILE":"3633327","OBJECT_ID":"2020-006K","CLASSIFICATION_TYPE":"U","DECAY_DATE":null,"OBJECT_NAME":"STARLINK-1155","EPOCH":"2022-10-25T13:55:45.551712","REV_AT_EPOCH":"15109","ARG_OF_PERICENTER":"24.5708","MEAN_ANOMALY":"335.5344","INCLINATION":"53.0047","PERIOD":"94.894","TLE_LINE2":"2 45053  53.0047  36.6179 0001225  24.5708 335.5344 15.17487013151096","MEAN_MOTION_DOT":"0.00017547","TIME_SYSTEM":"UTC","ELEMENT_SET_NO":"999","ECCENTRICITY":"0.00012250","OBJECT_TYPE":"PAYLOAD","EPHEMERIS_TYPE":"0","MEAN_MOTION_DDOT":"0.0000000000000","BSTAR":"0.00087851000000","RCS_SIZE":"LARGE","PERIAPSIS":"512.596","REF_FRAME":"TEME","GP_ID":"216151236","APOAPSIS":"514.285","COUNTRY_CODE":"US","RA_OF_ASC_NODE":"36.6179","SEMIMAJOR_AXIS":"6891.576","MEAN_MOTION":"15.17487013","CENTER_NAME":"EARTH","TLE_LINE1":"1 45053U 20006K   22298.58038833  .00017547  00000-0  87851-3 0  9992","SITE":"AFETR","LAUNCH_DATE":"2020-01-29","NORAD_CAT_ID":"45053"},{"MEAN_MOTION_DOT":"-0.00000804","ELEMENT_SET_NO":"999","TIME_SYSTEM":"UTC","ARG_OF_PERICENTER":"95.4849","INCLINATION":"53.0557","MEAN_ANOMALY":"264.6281","TLE_LINE2":"2 45054  53.0557  53.2005 0001232  95.4849 264.6281 15.06391176150900","PERIOD":"95.593","CLASSIFICATION_TYPE":"U","OBJECT_NAME":"STARLINK-1156","DECAY_DATE":null,"EPOCH":"2022-10-25T14:23:06.743040","REV_AT_EPOCH":"15090","MEAN_ELEMENT_THEORY":"SGP4","FILE":"3633327","OBJECT_ID":"2020-006L","SITE":"AFETR","TLE_LINE1":"1 45054U 20006L   22298.59938360 -.00000804  00000-0 -35116-4 0  9996","CENTER_NAME":"EARTH","MEAN_MOTION":"15.06391176","NORAD_CAT_ID":"45054","LAUNCH_DATE":"2020-01-29","RA_OF_ASC_NODE":"53.2005","COUNTRY_CODE":"US","SEMIMAJOR_AXIS":"6925.376","RCS_SIZE":"LARGE","BSTAR":"-0.00003511600000","PERIAPSIS":"546.387","APOAPSIS":"548.094","REF_FRAME":"TEME","GP_ID":"216150987","EPHEMERIS_TYPE":"0","OBJECT_TYPE":"PAYLOAD","ECCENTRICITY":"0.00012320","MEAN_MOTION_DDOT":"0.0000000000000"},{"PERIOD":"95.593","TLE_LINE2":"2 45057  53.0567  52.5454 0001317  84.3746 275.7393 15.06391727150933","INCLINATION":"53.0567","MEAN_ANOMALY":"275.7393","ARG_OF_PERICENTER":"84.3746","TIME_SYSTEM":"UTC","ELEMENT_SET_NO":"999","MEAN_MOTION_DOT":"-0.00000096","OBJECT_ID":"2020-006P","FILE":"3633327","MEAN_ELEMENT_THEORY":"SGP4","REV_AT_EPOCH":"15093","EPOCH":"2022-10-25T17:55:25.591008","DECAY_DATE":null,"OBJECT_NAME":"STARLINK-1159","CLASSIFICATION_TYPE":"U","SEMIMAJOR_AXIS":"6925.374","COUNTRY_CODE":"US","RA_OF_ASC_NODE":"52.5454","LAUNCH_DATE":"2020-01-29","NORAD_CAT_ID":"45057","MEAN_MOTION":"15.06391727","CENTER_NAME":"EARTH","SITE":"AFETR","TLE_LINE1":"1 45057U 20006P   22298.74682397 -.00000096  00000-0  12456-4 0  9996","MEAN_MOTION_DDOT":"0.0000000000000","ECCENTRICITY":"0.00013170","OBJECT_TYPE":"PAYLOAD","EPHEMERIS_TYPE":"0","GP_ID":"216152237","REF_FRAME":"TEME","APOAPSIS":"548.151","PERIAPSIS":"546.327","RCS_SIZE":"LARGE","BSTAR":"0.00001245600000"},{"APOAPSIS":"548.197","GP_ID":"216152468","REF_FRAME":"TEME","PERIAPSIS":"546.353","RCS_SIZE":"LARGE","BSTAR":"-0.00011888000000","MEAN_MOTION_DDOT":"0.0000000000000","OBJECT_TYPE":"PAYLOAD","EPHEMERIS_TYPE":"0","ECCENTRICITY":"0.00013310","NORAD_CAT_ID":"45058","LAUNCH_DATE":"2020-01-29","SITE":"AFETR","TLE_LINE1":"1 45058U 20006Q   22298.60676770 -.00002051  00000-0 -11888-3 0  9991","MEAN_MOTION":"15.06379957","CENTER_NAME":"EARTH","SEMIMAJOR_AXIS":"6925.410","RA_OF_ASC_NODE":"53.1762","COUNTRY_CODE":"US","REV_AT_EPOCH":"15091","EPOCH":"2022-10-25T14:33:44.729280","DECAY_DATE":null,"OBJECT_NAME":"STARLINK-1162","CLASSIFICATION_TYPE":"U","OBJECT_ID":"2020-006Q","FILE":"3633327","MEAN_ELEMENT_THEORY":"SGP4","ELEMENT_SET_NO":"999","TIME_SYSTEM":"UTC","MEAN_MOTION_DOT":"-0.00002051","TLE_LINE2":"2 45058  53.0567  53.1762 0001331  80.5115 279.6024 15.06379957150910","PERIOD":"95.593","MEAN_ANOMALY":"279.6024","INCLINATION":"53.0567","ARG_OF_PERICENTER":"80.5115"},{"FILE":"3633327","MEAN_ELEMENT_THEORY":"SGP4","OBJECT_ID":"2020-006R","DECAY_DATE":null,"OBJECT_NAME":"STARLINK-1165","CLASSIFICATION_TYPE":"U","REV_AT_EPOCH":"15092","EPOCH":"2022-10-25T16:41:07.088352","ARG_OF_PERICENTER":"95.5728","PERIOD":"95.593","TLE_LINE2":"2 45059  53.0551  52.7748 0001351  95.5728 264.5415 15.06392767150923","MEAN_ANOMALY":"264.5415","INCLINATION":"53.0551","MEAN_MOTION_DOT":"0.00000262","TIME_SYSTEM":"UTC","ELEMENT_SET_NO":"999","MEAN_MOTION_DDOT":"0.0000000000000","ECCENTRICITY":"0.00013510","OBJECT_TYPE":"PAYLOAD","EPHEMERIS_TYPE":"0","BSTAR":"0.00003651500000","RCS_SIZE":"LARGE","REF_FRAME":"TEME","GP_ID":"216150737","APOAPSIS":"548.171","PERIAPSIS":"546.300","SEMIMAJOR_AXIS":"6925.371","COUNTRY_CODE":"US","RA_OF_ASC_NODE":"52.7748","MEAN_MOTION":"15.06392767","CENTER_NAME":"EARTH","TLE_LINE1":"1 45059U 20006R   22298.69522093  .00000262  00000-0  36515-4 0  9994","SITE":"AFETR","LAUNCH_DATE":"2020-01-29","NORAD_CAT_ID":"45059"},{"LAUNCH_DATE":"2020-01-29","NORAD_CAT_ID":"45060","CENTER_NAME":"EARTH","MEAN_MOTION":"15.06389280","TLE_LINE1":"1 45060U 20006S   22298.42614789 -.00002119  00000-0 -12347-3 0  9992","SITE":"AFETR","COUNTRY_CODE":"US","RA_OF_ASC_NODE":"53.9785","SEMIMAJOR_AXIS":"6925.381","PERIAPSIS":"546.325","REF_FRAME":"TEME","GP_ID":"216120033","APOAPSIS":"548.168","BSTAR":"-0.00012347000000","RCS_SIZE":"LARGE","ECCENTRICITY":"0.00013310","EPHEMERIS_TYPE":"0","OBJECT_TYPE":"PAYLOAD","MEAN_MOTION_DDOT":"0.0000000000000","TIME_SYSTEM":"UTC","ELEMENT_SET_NO":"999","MEAN_MOTION_DOT":"-0.00002119","MEAN_ANOMALY":"276.3532","INCLINATION":"53.0562","PERIOD":"95.593","TLE_LINE2":"2 45060  53.0562  53.9785 0001331  83.7608 276.3532 15.06389280150887","ARG_OF_PERICENTER":"83.7608","EPOCH":"2022-10-25T10:13:39.177696","REV_AT_EPOCH":"15088","CLASSIFICATION_TYPE":"U","DECAY_DATE":null,"OBJECT_NAME":"STARLINK-1166","OBJECT_ID":"2020-006S","MEAN_ELEMENT_THEORY":"SGP4","FILE":"3633075"},{"OBJECT_TYPE":"PAYLOAD","EPHEMERIS_TYPE":"0","ECCENTRICITY":"0.00013730","MEAN_MOTION_DDOT":"0.0000000000000","PERIAPSIS":"546.264","APOAPSIS":"548.166","GP_ID":"216151738","REF_FRAME":"TEME","BSTAR":"0.00002428700000","RCS_SIZE":"LARGE","RA_OF_ASC_NODE":"52.7411","COUNTRY_CODE":"US","SEMIMAJOR_AXIS":"6925.350","NORAD_CAT_ID":"45061","LAUNCH_DATE":"2020-01-29","TLE_LINE1":"1 45061U 20006T   22298.69890296  .00000080  00000-0  24287-4 0  9991","SITE":"AFETR","MEAN_MOTION":"15.06399547","CENTER_NAME":"EARTH","OBJECT_ID":"2020-006T","MEAN_ELEMENT_THEORY":"SGP4","FILE":"3633327","EPOCH":"2022-10-25T16:46:25.215744","REV_AT_EPOCH":"15092","CLASSIFICATION_TYPE":"U","OBJECT_NAME":"STARLINK-1169","DECAY_DATE":null,"MEAN_ANOMALY":"276.2323","INCLINATION":"53.0551","TLE_LINE2":"2 45061  53.0551  52.7411 0001373  83.8823 276.2323 15.06399547150924","PERIOD":"95.592","ARG_OF_PERICENTER":"83.8823","ELEMENT_SET_NO":"999","TIME_SYSTEM":"UTC","MEAN_MOTION_DOT":"0.00000080"},{"PERIAPSIS":"546.391","REF_FRAME":"TEME","GP_ID":"216151969","APOAPSIS":"548.045","RCS_SIZE":"LARGE","BSTAR":"-0.00006201400000","ECCENTRICITY":"0.00011940","EPHEMERIS_TYPE":"0","OBJECT_TYPE":"PAYLOAD","MEAN_MOTION_DDOT":"0.0000000000000","LAUNCH_DATE":"2020-01-29","NORAD_CAT_ID":"45062","MEAN_MOTION":"15.06398615","CENTER_NAME":"EARTH","SITE":"AFETR","TLE_LINE1":"1 45062U 20006U   22298.61781295 -.00001205  00000-0 -62014-4 0  9994","COUNTRY_CODE":"US","RA_OF_ASC_NODE":"53.1204","SEMIMAJOR_AXIS":"6925.353","EPOCH":"2022-10-25T14:49:39.038880","REV_AT_EPOCH":"15091","CLASSIFICATION_TYPE":"U","DECAY_DATE":null,"OBJECT_NAME":"STARLINK-1171","OBJECT_ID":"2020-006U","MEAN_ELEMENT_THEORY":"SGP4","FILE":"3633327","TIME_SYSTEM":"UTC","ELEMENT_SET_NO":"999","MEAN_MOTION_DOT":"-0.00001205","MEAN_ANOMALY":"289.4563","INCLINATION":"53.0571","PERIOD":"95.592","TLE_LINE2":"2 45062  53.0571  53.1204 0001194  70.6555 289.4563 15.06398615150915","ARG_OF_PERICENTER":"70.6555"},{"OBJECT_ID":"2020-006W","FILE":"3633327","MEAN_ELEMENT_THEORY":"SGP4","REV_AT_EPOCH":"15118","EPOCH":"2022-10-25T13:32:42.110592","DECAY_DATE":null,"OBJECT_NAME":"STARLINK-1133","CLASSIFICATION_TYPE":"U","PERIOD":"95.593","TLE_LINE2":"2 45064  53.0587  33.3644 0000867  52.6917 307.4151 15.06382361151185","MEAN_ANOMALY":"307.4151","INCLINATION":"53.0587","ARG_OF_PERICENTER":"52.6917","TIME_SYSTEM":"UTC","ELEMENT_SET_NO":"999","MEAN_MOTION_DOT":"-0.00000717","MEAN_MOTION_DDOT":"0.0000000000000","ECCENTRICITY":"0.00008670","OBJECT_TYPE":"PAYLOAD","EPHEMERIS_TYPE":"0","GP_ID":"216151237","REF_FRAME":"TEME","APOAPSIS":"547.868","PERIAPSIS":"546.667","BSTAR":"-0.00002926800000","RCS_SIZE":"LARGE","SEMIMAJOR_AXIS":"6925.403","COUNTRY_CODE":"US","RA_OF_ASC_NODE":"33.3644","LAUNCH_DATE":"2020-01-29","NORAD_CAT_ID":"45064","MEAN_MOTION":"15.06382361","CENTER_NAME":"EARTH","TLE_LINE1":"1 45064U 20006W   22298.56437628 -.00000717  00000-0 -29268-4 0  9999","SITE":"AFETR"}];
